{
  "type": "FeatureCollection",
  "features": [
    {
      "type": "Feature",
      "properties": {
        "norad_id": 30728,
        "name": "FENGYUN 1C DEB",
        "group": "fengyun-1c-debris",
        "lat": 24.586134418307466,
        "lon": -4.241231048434106,
        "alt_km": 756.5233077634975,
        "timestamp": "2025-12-19T04:59:48.584515+00:00",
        "meta_object_name": "FENGYUN 1C DEB",
        "meta_object_id": "1999-025ASN",
        "meta_epoch": "2025-12-18T06:57:04.472640",
        "meta_mean_motion": 14.23476336,
        "meta_eccentricity": 0.00994498,
        "meta_inclination": 98.5292,
        "meta_ra_of_asc_node": 358.8054,
        "meta_arg_of_pericenter": 65.9982,
        "meta_mean_anomaly": 295.1569,
        "meta_ephemeris_type": 0,
        "meta_classification_type": "U",
        "meta_norad_cat_id": 30728,
        "meta_element_set_no": 999,
        "meta_rev_at_epoch": 97768,
        "meta_bstar": 6.7933198e-05,
        "meta_mean_motion_dot": 1.21e-06,
        "meta_mean_motion_ddot": 0,
        "tle_line1": "1 30728U 99025ASN 25352.28963510  .00000121  00000+0  67933-4 0  9991",
        "tle_line2": "2 30728  98.5292 358.8054 0099449  65.9982 295.1569 14.23476336977687"
      },
      "geometry": {
        "type": "Point",
        "coordinates": [
          -4.241231048434106,
          24.586134418307466
        ]
      }
    },
    {
      "type": "Feature",
      "properties": {
        "norad_id": 30730,
        "name": "FENGYUN 1C DEB",
        "group": "fengyun-1c-debris",
        "lat": 10.324860104571703,
        "lon": 30.635819514522865,
        "alt_km": 755.5093760227,
        "timestamp": "2025-12-19T04:59:48.584525+00:00",
        "meta_object_name": "FENGYUN 1C DEB",
        "meta_object_id": "1999-025ASQ",
        "meta_epoch": "2025-12-18T16:04:21.266112",
        "meta_mean_motion": 14.25502251,
        "meta_eccentricity": 0.00780465,
        "meta_inclination": 98.6179,
        "meta_ra_of_asc_node": 31.6898,
        "meta_arg_of_pericenter": 32.0671,
        "meta_mean_anomaly": 96.8293,
        "meta_ephemeris_type": 0,
        "meta_classification_type": "U",
        "meta_norad_cat_id": 30730,
        "meta_element_set_no": 999,
        "meta_rev_at_epoch": 97090,
        "meta_bstar": 0.00075662679,
        "meta_mean_motion_dot": 1.803e-05,
        "meta_mean_motion_ddot": 0,
        "tle_line1": "1 30730U 99025ASQ 25352.66969058  .00001803  00000+0  75663-3 0  9995",
        "tle_line2": "2 30730  98.6179  31.6898 0078046  32.0671  96.8293 14.25502251970903"
      },
      "geometry": {
        "type": "Point",
        "coordinates": [
          30.635819514522865,
          10.324860104571703
        ]
      }
    },
    {
      "type": "Feature",
      "properties": {
        "norad_id": 30731,
        "name": "FENGYUN 1C DEB",
        "group": "fengyun-1c-debris",
        "lat": -18.071979107889177,
        "lon": -110.05899128952946,
        "alt_km": 747.7621061318778,
        "timestamp": "2025-12-19T04:59:48.584536+00:00",
        "meta_object_name": "FENGYUN 1C DEB",
        "meta_object_id": "1999-025ASR",
        "meta_epoch": "2025-12-18T17:07:22.587168",
        "meta_mean_motion": 14.41846281,
        "meta_eccentricity": 0.00154083,
        "meta_inclination": 98.86,
        "meta_ra_of_asc_node": 72.3454,
        "meta_arg_of_pericenter": 228.927,
        "meta_mean_anomaly": 282.7581,
        "meta_ephemeris_type": 0,
        "meta_classification_type": "U",
        "meta_norad_cat_id": 30731,
        "meta_element_set_no": 999,
        "meta_rev_at_epoch": 97442,
        "meta_bstar": 0.0016650887,
        "meta_mean_motion_dot": 5.409e-05,
        "meta_mean_motion_ddot": 0,
        "tle_line1": "1 30731U 99025ASR 25352.71345587  .00005409  00000+0  16651-2 0  9994",
        "tle_line2": "2 30731  98.8600  72.3454 0015408 228.9270 282.7581 14.41846281974428"
      },
      "geometry": {
        "type": "Point",
        "coordinates": [
          -110.05899128952946,
          -18.071979107889177
        ]
      }
    },
    {
      "type": "Feature",
      "properties": {
        "norad_id": 30732,
        "name": "FENGYUN 1C DEB",
        "group": "fengyun-1c-debris",
        "lat": 34.85668900536933,
        "lon": -160.6830445319977,
        "alt_km": 815.1563674707477,
        "timestamp": "2025-12-19T04:59:48.584546+00:00",
        "meta_object_name": "FENGYUN 1C DEB",
        "meta_object_id": "1999-025ASS",
        "meta_epoch": "2025-12-18T13:38:26.158848",
        "meta_mean_motion": 14.03909409,
        "meta_eccentricity": 0.01239366,
        "meta_inclination": 98.8039,
        "meta_ra_of_asc_node": 12.5006,
        "meta_arg_of_pericenter": 192.6503,
        "meta_mean_anomaly": 320.9215,
        "meta_ephemeris_type": 0,
        "meta_classification_type": "U",
        "meta_norad_cat_id": 30732,
        "meta_element_set_no": 999,
        "meta_rev_at_epoch": 96273,
        "meta_bstar": 0.00018710219,
        "meta_mean_motion_dot": 2.74e-06,
        "meta_mean_motion_ddot": 0,
        "tle_line1": "1 30732U 99025ASS 25352.56835832  .00000274  00000+0  18710-3 0  9999",
        "tle_line2": "2 30732  98.8039  12.5006 0123936 192.6503 320.9215 14.03909409962736"
      },
      "geometry": {
        "type": "Point",
        "coordinates": [
          -160.6830445319977,
          34.85668900536933
        ]
      }
    },
    {
      "type": "Feature",
      "properties": {
        "norad_id": 30735,
        "name": "FENGYUN 1C DEB",
        "group": "fengyun-1c-debris",
        "lat": 57.01403289563405,
        "lon": -101.99928040251437,
        "alt_km": 817.167937588637,
        "timestamp": "2025-12-19T04:59:48.584556+00:00",
        "meta_object_name": "FENGYUN 1C DEB",
        "meta_object_id": "1999-025ASV",
        "meta_epoch": "2025-12-17T03:39:29.833632",
        "meta_mean_motion": 14.23998681,
        "meta_eccentricity": 0.00602079,
        "meta_inclination": 98.764,
        "meta_ra_of_asc_node": 62.2025,
        "meta_arg_of_pericenter": 232.6761,
        "meta_mean_anomaly": 157.0622,
        "meta_ephemeris_type": 0,
        "meta_classification_type": "U",
        "meta_norad_cat_id": 30735,
        "meta_element_set_no": 999,
        "meta_rev_at_epoch": 96811,
        "meta_bstar": 0.0013372818,
        "meta_mean_motion_dot": 3.084e-05,
        "meta_mean_motion_ddot": 0,
        "tle_line1": "1 30735U 99025ASV 25351.15242863  .00003084  00000+0  13373-2 0  9993",
        "tle_line2": "2 30735  98.7640  62.2025 0060207 232.6761 157.0622 14.23998681968112"
      },
      "geometry": {
        "type": "Point",
        "coordinates": [
          -101.99928040251437,
          57.01403289563405
        ]
      }
    },
    {
      "type": "Feature",
      "properties": {
        "norad_id": 30736,
        "name": "FENGYUN 1C DEB",
        "group": "fengyun-1c-debris",
        "lat": 1.4495190559905655,
        "lon": 30.2801899812167,
        "alt_km": 862.4004703335904,
        "timestamp": "2025-12-19T04:59:48.584566+00:00",
        "meta_object_name": "FENGYUN 1C DEB",
        "meta_object_id": "1999-025ASW",
        "meta_epoch": "2025-12-17T02:06:23.222592",
        "meta_mean_motion": 13.61651922,
        "meta_eccentricity": 0.02795335,
        "meta_inclination": 98.7804,
        "meta_ra_of_asc_node": 28.5939,
        "meta_arg_of_pericenter": 42.9136,
        "meta_mean_anomaly": 11.775,
        "meta_ephemeris_type": 0,
        "meta_classification_type": "U",
        "meta_norad_cat_id": 30736,
        "meta_element_set_no": 999,
        "meta_rev_at_epoch": 92912,
        "meta_bstar": 0.0014948037,
        "meta_mean_motion_dot": 1.45e-05,
        "meta_mean_motion_ddot": 0,
        "tle_line1": "1 30736U 99025ASW 25351.08776878  .00001450  00000+0  14948-2 0  9998",
        "tle_line2": "2 30736  98.7804  28.5939 0279533  42.9136  11.7750 13.61651922929127"
      },
      "geometry": {
        "type": "Point",
        "coordinates": [
          30.2801899812167,
          1.4495190559905655
        ]
      }
    },
    {
      "type": "Feature",
      "properties": {
        "norad_id": 30737,
        "name": "FENGYUN 1C DEB",
        "group": "fengyun-1c-debris",
        "lat": -80.40618326455913,
        "lon": 38.58182388316549,
        "alt_km": 855.1352212106212,
        "timestamp": "2025-12-19T04:59:48.584576+00:00",
        "meta_object_name": "FENGYUN 1C DEB",
        "meta_object_id": "1999-025ASX",
        "meta_epoch": "2025-12-18T05:46:23.511360",
        "meta_mean_motion": 14.18261323,
        "meta_eccentricity": 0.00243232,
        "meta_inclination": 98.5795,
        "meta_ra_of_asc_node": 334.3747,
        "meta_arg_of_pericenter": 116.1981,
        "meta_mean_anomaly": 260.2304,
        "meta_ephemeris_type": 0,
        "meta_classification_type": "U",
        "meta_norad_cat_id": 30737,
        "meta_element_set_no": 999,
        "meta_rev_at_epoch": 97111,
        "meta_bstar": 0.00026008746,
        "meta_mean_motion_dot": 4.95e-06,
        "meta_mean_motion_ddot": 0,
        "tle_line1": "1 30737U 99025ASX 25352.24054990  .00000495  00000+0  26009-3 0  9992",
        "tle_line2": "2 30737  98.5795 334.3747 0024323 116.1981 260.2304 14.18261323971114"
      },
      "geometry": {
        "type": "Point",
        "coordinates": [
          38.58182388316549,
          -80.40618326455913
        ]
      }
    }
  ]
}